QIANFAN-73              
1 63159U 25046A   25300.98145467  .00000048  00000+0  56073-4 0  9991
2 63159  88.9771 324.7633 0013066 253.8642 106.1071 13.50972005 41238
QIANFAN-74              
1 63160U 25046B   25300.89091134  .00000037  00000+0  38794-4 0  9992
2 63160  88.9771 324.6610 0002100  94.9877 265.1514 13.50973852 41289
QIANFAN-75              
1 63161U 25046C   25300.87842397  .00000127  00000+0  17808-3 0  9998
2 63161  88.9773 324.8952 0014154 257.8030 102.1536 13.50982915 41156
QIANFAN-76              
1 63162U 25046D   25300.87446308 -.00000131  00000+0 -22073-3 0  9998
2 63162  88.9770 324.8763 0011757 258.2830 101.7002 13.50971604 41160
QIANFAN-77              
1 63163U 25046E   25300.88623472  .00000152  00000+0  10083-3 0  9998
2 63163  88.9770 323.2587 0013441 216.8306 143.1948 13.96077323 42051
QIANFAN-78              
1 63164U 25046F   25300.98968961  .00000025  00000+0  21035-4 0  9994
2 63164  88.9771 324.7291 0013073 260.5714  99.3959 13.50974134 41252
QIANFAN-79              
1 63165U 25046G   25300.94431178  .00000040  00000+0  43607-4 0  9992
2 63165  88.9775 324.8396 0012778 258.6971 101.2744 13.50973634 41190
QIANFAN-80              
1 63166U 25046H   25300.96087499  .00000100  00000+0  13709-3 0  9994
2 63166  88.9772 324.5458 0011715 263.6561  96.3256 13.50975094 41357
